DMSP 5D-3 F16 (USA 172) 
1 28054U 03048A   26031.80530919  .00000170  00000+0  11255-3 0  9995
2 28054  99.0018  54.6506 0007484 166.2862   6.6666 14.14446944150207
METEOSAT-9 (MSG-2)      
1 28912U 05049B   26031.21576725  .00000114  00000+0  00000+0 0  9991
2 28912   9.0508  55.5007 0001675 211.0382 347.1631  1.00276676  5627
DMSP 5D-3 F17 (USA 191) 
1 29522U 06050A   26031.76572865  .00000204  00000+0  12791-3 0  9997
2 29522  98.7401  41.1162 0011146  86.5975 273.6473 14.14946318993126
FENGYUN 3A              
1 32958U 08026A   26031.80103924  .00000118  00000+0  76614-4 0  9999
2 32958  98.6754 335.2891 0009055 154.3585 205.8042 14.19534104916053
GOES 14                 
1 35491U 09033A   26031.74950900  .00000110  00000+0  00000+0 0  9993
2 35491   1.3345  84.8323 0001476 259.7502 275.6600  1.00108721  5221
DMSP 5D-3 F18 (USA 210) 
1 35951U 09057A   26031.86740676  .00000277  00000+0  16681-3 0  9990
2 35951  98.8900  13.0357 0010062 280.2361  79.7677 14.14809607840318
EWS-G2 (GOES 15)        
1 36411U 10008A   26031.85580698  .00000027  00000+0  00000+0 0  9992
2 36411   0.9341  85.7538 0005210 196.5748 218.3371  1.00274532 58279
COMS 1                  
1 36744U 10032A   26031.84365863 -.00000355  00000+0  00000+0 0  9997
2 36744   4.4590  77.3521 0001227 229.4566 256.1294  1.00271765 49729
FENGYUN 3B              
1 37214U 10059A   26031.90800918 -.00000007  00000+0  19959-4 0  9993
2 37214  98.9845  77.2206 0021602 210.8122 322.5779 14.14807317788153
SUOMI NPP               
1 37849U 11061A   26031.80906390  .00000101  00000+0  68889-4 0  9991
2 37849  98.7828 333.7143 0001938  34.2015 325.9286 14.19532183739095
METEOSAT-10 (MSG-3)     
1 38552U 12035B   26031.77735072 -.00000018  00000+0  00000+0 0  9992
2 38552   4.3484  61.5963 0002317 277.6646  71.5502  1.00271173 49486
METOP-B                 
1 38771U 12049A   26031.77128948  .00000149  00000+0  87999-4 0  9999
2 38771  98.6720  85.8642 0002723  41.8276 318.3109 14.21431343693880
INSAT-3D                
1 39216U 13038B   26031.80300419 -.00000349  00000+0  00000+0 0  9998
2 39216   1.5738  84.3691 0002001 195.7393 269.4732  1.00269184 45719
FENGYUN 3C              
1 39260U 13052A   26031.85408922  .00000127  00000+0  85558-4 0  9995
2 39260  98.4829  12.1032 0015667  58.2001 302.0698 14.15715540639270
METEOR-M 2              
1 40069U 14037A   26031.86831808  .00000126  00000+0  76774-4 0  9991
2 40069  98.4957  12.5480 0006909  75.1208 285.0735 14.21411610599958
HIMAWARI-8              
1 40267U 14060A   26031.80525753 -.00000285  00000+0  00000+0 0  9991
2 40267   0.0287 197.8279 0001208 101.6866 262.0276  1.00270184 41395
FENGYUN 2G              
1 40367U 14090A   26031.90938340 -.00000311  00000+0  00000+0 0  9996
2 40367   5.2933  74.4806 0001846 190.2969 293.2220  1.00265030 40638
METEOSAT-11 (MSG-4)     
1 40732U 15034A   26031.77925737  .00000054  00000+0  00000+0 0  9995
2 40732   2.8608  71.8211 0001045 235.5056 113.9087  1.00267729  5848
ELEKTRO-L 2             
1 41105U 15074A   26031.84581778 -.00000129  00000+0  00000+0 0  9999
2 41105   6.3500  72.2137 0003788 222.5613 126.2616  1.00271859 37137
INSAT-3DR               
1 41752U 16054A   26031.00741938 -.00000083  00000+0  00000+0 0  9999
2 41752   0.0381  93.5199 0014172 183.9872 289.3810  1.00270680 34442
HIMAWARI-9              
1 41836U 16064A   26031.80525753 -.00000283  00000+0  00000+0 0  9998
2 41836   0.0261 197.2265 0001097 121.2310 243.1767  1.00272767 33842
GOES 16                 
1 41866U 16071A   26031.61396155 -.00000099  00000+0  00000+0 0  9995
2 41866   0.1434  94.6153 0003177 192.9402 319.5785  1.00271142 33734
FENGYUN 4A              
1 41882U 16077A   26031.87320461 -.00000367  00000+0  00000+0 0  9992
2 41882   1.9745  81.8367 0006555 133.6802 353.4863  1.00278719 33562
CYGFM05                 
1 41884U 16078A   26031.82372306  .00021237  00000+0  36305-3 0  9994
2 41884  34.9594  79.4068 0008208 283.6336  76.3473 15.50284879507533
CYGFM04                 
1 41885U 16078B   26031.43116758  .00023263  00000+0  35991-3 0  9990
2 41885  34.9345  55.2497 0006954 305.8272  54.1804 15.53058456507667
CYGFM02                 
1 41886U 16078C   26031.44412868  .00026652  00000+0  38473-3 0  9996
2 41886  34.9430  52.7731 0008112 308.0164  51.9827 15.54924325507803
CYGFM01                 
1 41887U 16078D   26031.53886440  .00021133  00000+0  35645-3 0  9995
2 41887  34.9422  83.2623 0008230 273.3693  86.6088 15.50659851507434
CYGFM08                 
1 41888U 16078E   26031.48904510  .00023154  00000+0  37164-3 0  9992
2 41888  34.9453  65.9627 0009231 297.7648  62.2139 15.52021869507668
CYGFM07                 
1 41890U 16078G   26031.47163492  .00022655  00000+0  35561-3 0  9994
2 41890  34.9472  54.7647 0007182 312.9679  47.0442 15.52661969507688
CYGFM03                 
1 41891U 16078H   26031.76189612  .00023736  00000+0  37393-3 0  9995
2 41891  34.9427  54.8081 0007049 299.2557  60.7461 15.52555639507708
FENGYUN 3D              
1 43010U 17072A   26031.91799772 -.00000021  00000+0  11774-4 0  9995
2 43010  98.9956   3.9984 0002510  80.5419 279.6040 14.19702306425657
NOAA 20 (JPSS-1)        
1 43013U 17073A   26031.82354070  .00000082  00000+0  59994-4 0  9999
2 43013  98.7652 332.5866 0000666  17.4699 342.6500 14.19525685425127
GOES 17                 
1 43226U 18022A   26031.61699490 -.00000191  00000+0  00000+0 0  9996
2 43226   0.5858  88.2487 0003052 205.9039 329.2690  1.00270369 29055
FENGYUN 2H              
1 43491U 18050A   26031.86436455 -.00000134  00000+0  00000+0 0  9995
2 43491   2.6784  80.7529 0002609 181.0057 259.3839  1.00266405 28070
METOP-C                 
1 43689U 18087A   26031.79732032  .00000145  00000+0  86170-4 0  9994
2 43689  98.6846  93.7805 0001384 153.4384 206.6864 14.21507342375454
GEO-KOMPSAT-2A          
1 43823U 18100A   26031.80283084 -.00000353  00000+0  00000+0 0  9995
2 43823   0.0133  99.1433 0000811 285.0966 164.0290  1.00270434 26263
METEOR-M2 2             
1 44387U 19038A   26031.89479421 -.00000082  00000+0 -15515-4 0  9995
2 44387  98.9024  17.2537 0002220  65.7615 294.3795 14.24317128341898
ARKTIKA-M 1             
1 47719U 21016A   26029.42409457 -.00000182  00000+0  00000+0 0  9992
2 47719  63.1907  77.4062 7227576 269.3208  15.3167  2.00632158 36007
FENGYUN 3E              
1 49008U 21062A   26031.91797765  .00000195  00000+0  11249-3 0  9999
2 49008  98.7492  36.8493 0002591 108.2406 251.9053 14.19888768237246
GOES 18                 
1 51850U 22021A   26031.75020235  .00000000  00000+0  00000+0 0  9990
2 51850   0.0276  93.4356 0000781 263.0708 267.5460  1.00271468  5226
NOAA 21 (JPSS-2)        
1 54234U 22150A   26031.78816534  .00000102  00000+0  69093-4 0  9995
2 54234  98.7515 332.4861 0001071 187.4405 172.6755 14.19541548167199
METEOSAT-12 (MTG-I1)    
1 54743U 22170C   26031.77726405 -.00000016  00000+0  00000+0 0  9991
2 54743   0.7049  24.1711 0002339 266.4934 119.8143  1.00268919 11614
TIANMU-1 03             
1 55973U 23039A   26031.86082756  .00015771  00000+0  36233-3 0  9990
2 55973  97.5126 200.9847 0002595 223.3959 136.7084 15.42772253159782
TIANMU-1 04             
1 55974U 23039B   26031.89367194  .00016338  00000+0  37054-3 0  9998
2 55974  97.5057 200.1905 0003325 219.1470 140.9538 15.43148157159799
TIANMU-1 05             
1 55975U 23039C   26031.83604935  .00015816  00000+0  36402-3 0  9996
2 55975  97.5104 200.6243 0002269 251.6442 108.4559 15.42718804159769
TIANMU-1 06             
1 55976U 23039D   26031.89428501  .00016039  00000+0  36336-3 0  9990
2 55976  97.5115 201.1917 0002616 243.7501 116.3478 15.43188258159796
FENGYUN 3G              
1 56232U 23055A   26027.45975122  .00037043  00000+0  61123-3 0  9997
2 56232  49.9947 351.6044 0009726 197.0598 163.0043 15.51815365158133
METEOR-M2 3             
1 57166U 23091A   26031.85934637  .00000031  00000+0  32187-4 0  9995
2 57166  98.6295  89.5048 0003683 191.2484 168.8613 14.24033487135119
TIANMU-1 07             
1 57399U 23101A   26031.87337433  .00007044  00000+0  25297-3 0  9992
2 57399  97.2803  85.6266 0002392 249.2140 110.8845 15.28964731140812
TIANMU-1 08             
1 57400U 23101B   26031.84252130  .00007784  00000+0  28017-3 0  9996
2 57400  97.2793  85.3817 0004157 256.0408 104.0370 15.28856438140807
TIANMU-1 09             
1 57401U 23101C   26031.82636587  .00007412  00000+0  26576-3 0  9993
2 57401  97.2750  84.8575 0003494 258.2425 101.8424 15.28999191140801
TIANMU-1 10             
1 57402U 23101D   26031.86079824  .00006989  00000+0  25075-3 0  9994
2 57402  97.2829  85.7940 0005214 260.1811  99.8841 15.28993065140801
FENGYUN 3F              
1 57490U 23111A   26031.83401730  .00000093  00000+0  64418-4 0  9999
2 57490  98.7004 104.3014 0001454 104.2296 255.9042 14.19910014129511
ARKTIKA-M 2             
1 58584U 23198A   26031.17808913  .00000144  00000+0  00000+0 0  9999
2 58584  63.2231 169.5051 6871285 267.9041  18.8311  2.00612872 15570
TIANMU-1 11             
1 58645U 23205A   26031.81357155  .00006139  00000+0  24590-3 0  9998
2 58645  97.3573  55.5727 0010763 120.8988 239.3310 15.25350568116726
TIANMU-1 12             
1 58646U 23205B   26031.84400105  .00006097  00000+0  24501-3 0  9991
2 58646  97.3560  55.3920 0009223 106.1613 254.0641 15.25257988116719
TIANMU-1 13             
1 58647U 23205C   26031.81047516  .00006496  00000+0  26048-3 0  9993
2 58647  97.3587  55.5817 0009535  91.2952 268.9379 15.25304223116708
TIANMU-1 14             
1 58648U 23205D   26031.86010559  .00006463  00000+0  25925-3 0  9993
2 58648  97.3521  54.9329 0010358  94.7250 265.5172 15.25283490116719
TIANMU-1 19             
1 58660U 23208A   26031.82931260  .00009181  00000+0  32837-3 0  9997
2 58660  97.4381 147.8057 0006302  82.9484 277.2473 15.29006713116472
TIANMU-1 20             
1 58661U 23208B   26031.84228271  .00009290  00000+0  32016-3 0  9991
2 58661  97.4319 148.3154 0008567  90.0069 270.2153 15.30198859116554
TIANMU-1 21             
1 58662U 23208C   26030.45170538  .00015658  00000+0  49859-3 0  9998
2 58662  97.4366 149.0560 0008446  90.5017 269.7193 15.32619606116456
TIANMU-1 22             
1 58663U 23208D   26031.83841100  .00008637  00000+0  31225-3 0  9999
2 58663  97.4375 147.8482 0005030 102.5391 257.6412 15.28678924116487
TIANMU-1 15             
1 58700U 24004A   26031.85757902  .00006808  00000+0  27342-3 0  9997
2 58700  97.4638 218.1648 0008361 106.0342 254.1817 15.25250936114982
TIANMU-1 16             
1 58701U 24004B   26031.84180823  .00006820  00000+0  27376-3 0  9990
2 58701  97.4578 217.4995 0006734 107.6836 252.5137 15.25280668114982
TIANMU-1 17             
1 58702U 24004C   26031.82503983  .00006514  00000+0  26132-3 0  9994
2 58702  97.4613 217.9183 0005934 108.2430 251.9454 15.25319163114972
TIANMU-1 18             
1 58703U 24004D   26031.87473992  .00006611  00000+0  26548-3 0  9995
2 58703  97.4630 218.1732 0005336 106.3578 253.8247 15.25283790114981
INSAT-3DS               
1 58990U 24033A   26031.80461340 -.00000164  00000+0  00000+0 0  9991
2 58990   0.0447 269.0860 0002008  61.4782 172.1508  1.00269873 45703
METEOR-M2 4             
1 59051U 24039A   26031.85984471  .00000030  00000+0  32900-4 0  9996
2 59051  98.6839 353.0017 0006623 196.1606 163.9361 14.22411017 99886
GOES 19                 
1 60133U 24119A   26031.54852784 -.00000256  00000+0  00000+0 0  9997
2 60133   0.0060 324.7329 0001193  16.6186 271.6761  1.00270511  5599
FENGYUN 3H              
1 65815U 25219A   26031.83057132  .00000085  00000+0  60591-4 0  9992
2 65815  98.6641 335.3484 0001563  91.7091 268.4265 14.19921997 18030
